ORBCOMM FM35 [+]        
1 25985U 99065F   17345.64007548  .00000036  00000-0  64709-4 0  9991
2 25985  45.0422  48.6962 0000650 104.2651 255.8268 14.32581682940945
